FENGYUN 1C DEB          
1 37594U 99025EKN 17345.25763534  .00000120  00000-0  92589-4 0  9998
2 37594  99.0636   4.1315 0087748 219.6810 139.7918 14.08836869365788
